ONEWEB-0411             
1 51623U 22012B   26007.66223199 -.00000392  00000+0 -11592-2 0  9992
2 51623  87.8784  68.2657 0001237 111.2342 248.8917 13.10374121188269
ONEWEB-0415             
1 51624U 22012C   26007.65892680 -.00000412  00000+0 -12164-2 0  9998
2 51624  87.8785  68.2690 0001469 107.4728 252.6560 13.10374624188265
ONEWEB-0416             
1 51625U 22012D   26007.67055567  .00000051  00000+0  10894-3 0  9992
2 51625  87.8785  68.2872 0001663 116.8857 243.2441 13.10375857188309
ONEWEB-0422             
1 51626U 22012E   26007.62241299 -.00000003  00000+0 -41585-4 0  9998
2 51626  87.9096  37.7654 0001687  71.5498 288.5816 13.17649082192662
ONEWEB-0423             
1 51627U 22012F   26007.76753638  .00000016  00000+0  89511-5 0  9993
2 51627  87.9095  37.7464 0001815  90.4361 269.6979 13.17650283192578
ONEWEB-0425             
1 51628U 22012G   26007.68052524  .00000510  00000+0  14256-2 0  9991
2 51628  87.8791  68.2583 0002100 102.9814 257.1548 13.10374820188305
ONEWEB-0428             
1 51629U 22012H   26007.66058682 -.00000398  00000+0 -11773-2 0  9998
2 51629  87.8788  68.2794 0001745  99.1494 260.9831 13.10375143188262
ONEWEB-0431             
1 51630U 22012J   26007.70693060  .00000160  00000+0  42129-3 0  9995
2 51630  87.8783  68.2514 0001087 106.4652 253.6595 13.10369256188327
ONEWEB-0434             
1 51631U 22012K   26007.68398573  .00000644  00000+0  18091-2 0  9991
2 51631  87.8783  68.2898 0002424 103.0160 257.1238 13.10374167188304
ONEWEB-0435             
1 51632U 22012L   26007.69214335  .00000521  00000+0  14567-2 0  9994
2 51632  87.8781  68.2777 0001650  91.1646 268.9671 13.10371566188294
ONEWEB-0436             
1 51633U 22012M   26007.60722557  .00000016  00000+0  72479-5 0  9994
2 51633  87.9094  37.7567 0001620  88.7470 271.3847 13.17649694192537
ONEWEB-0438             
1 51634U 22012N   26007.67554124  .00000307  00000+0  84432-3 0  9998
2 51634  87.8784  68.2827 0001927 103.4908 256.6434 13.10375645188327
ONEWEB-0439             
1 51635U 22012P   26007.67886076  .00000482  00000+0  13458-2 0  9996
2 51635  87.8784  68.2705 0001778  97.9756 262.1573 13.10374481188306
ONEWEB-0442             
1 51636U 22012Q   26007.82744572  .00000097  00000+0  21788-3 0  9996
2 51636  87.9083  37.7580 0002192 106.9327 253.2045 13.17648071192551
ONEWEB-0443             
1 51637U 22012R   26007.77090955  .00000158  00000+0  37467-3 0  9999
2 51637  87.9082  37.7732 0002049  91.1633 268.9733 13.17649199192599
ONEWEB-0444             
1 51638U 22012S   26007.66889395 -.00000079  00000+0 -26351-3 0  9996
2 51638  87.8786  68.2713 0001780  98.7835 261.3494 13.10375887188315
ONEWEB-0445             
1 51639U 22012T   26007.69047413  .00000652  00000+0  18310-2 0  9997
2 51639  87.8795  68.2383 0001742 107.7016 252.4301 13.10371523188321
