[{"OBJECT_NAME":"ONEWEB-0411","OBJECT_ID":"2022-012B","EPOCH":"2026-01-07T15:53:36.843936","MEAN_MOTION":13.10374121,"ECCENTRICITY":0.0001237,"INCLINATION":87.8784,"RA_OF_ASC_NODE":68.2657,"ARG_OF_PERICENTER":111.2342,"MEAN_ANOMALY":248.8917,"EPHEMERIS_TYPE":0,"CLASSIFICATION_TYPE":"U","NORAD_CAT_ID":51623,"ELEMENT_SET_NO":999,"REV_AT_EPOCH":18826,"BSTAR":-0.0011592,"MEAN_MOTION_DOT":-3.92e-6,"MEAN_MOTION_DDOT":0},{"OBJECT_NAME":"ONEWEB-0415","OBJECT_ID":"2022-012C","EPOCH":"2026-01-07T15:48:51.275520","MEAN_MOTION":13.10374624,"ECCENTRICITY":0.0001469,"INCLINATION":87.8785,"RA_OF_ASC_NODE":68.269,"ARG_OF_PERICENTER":107.4728,"MEAN_ANOMALY":252.656,"EPHEMERIS_TYPE":0,"CLASSIFICATION_TYPE":"U","NORAD_CAT_ID":51624,"ELEMENT_SET_NO":999,"REV_AT_EPOCH":18826,"BSTAR":-0.0012164,"MEAN_MOTION_DOT":-4.12e-6,"MEAN_MOTION_DDOT":0},{"OBJECT_NAME":"ONEWEB-0416","OBJECT_ID":"2022-012D","EPOCH":"2026-01-07T16:05:36.009888","MEAN_MOTION":13.10375857,"ECCENTRICITY":0.0001663,"INCLINATION":87.8785,"RA_OF_ASC_NODE":68.2872,"ARG_OF_PERICENTER":116.8857,"MEAN_ANOMALY":243.2441,"EPHEMERIS_TYPE":0,"CLASSIFICATION_TYPE":"U","NORAD_CAT_ID":51625,"ELEMENT_SET_NO":999,"REV_AT_EPOCH":18830,"BSTAR":0.00010894,"MEAN_MOTION_DOT":5.1e-7,"MEAN_MOTION_DDOT":0},{"OBJECT_NAME":"ONEWEB-0422","OBJECT_ID":"2022-012E","EPOCH":"2026-01-07T14:56:16.482336","MEAN_MOTION":13.17649082,"ECCENTRICITY":0.0001687,"INCLINATION":87.9096,"RA_OF_ASC_NODE":37.7654,"ARG_OF_PERICENTER":71.5498,"MEAN_ANOMALY":288.5816,"EPHEMERIS_TYPE":0,"CLASSIFICATION_TYPE":"U","NORAD_CAT_ID":51626,"ELEMENT_SET_NO":999,"REV_AT_EPOCH":19266,"BSTAR":-4.1585e-5,"MEAN_MOTION_DOT":-3.0e-8,"MEAN_MOTION_DDOT":0},{"OBJECT_NAME":"ONEWEB-0423","OBJECT_ID":"2022-012F","EPOCH":"2026-01-07T18:25:15.143232","MEAN_MOTION":13.17650283,"ECCENTRICITY":0.0001815,"INCLINATION":87.9095,"RA_OF_ASC_NODE":37.7464,"ARG_OF_PERICENTER":90.4361,"MEAN_ANOMALY":269.6979,"EPHEMERIS_TYPE":0,"CLASSIFICATION_TYPE":"U","NORAD_CAT_ID":51627,"ELEMENT_SET_NO":999,"REV_AT_EPOCH":19257,"BSTAR":8.9511e-6,"MEAN_MOTION_DOT":1.6e-7,"MEAN_MOTION_DDOT":0},{"OBJECT_NAME":"ONEWEB-0425","OBJECT_ID":"2022-012G","EPOCH":"2026-01-07T16:19:57.380736","MEAN_MOTION":13.1037482,"ECCENTRICITY":0.00021,"INCLINATION":87.8791,"RA_OF_ASC_NODE":68.2583,"ARG_OF_PERICENTER":102.9814,"MEAN_ANOMALY":257.1548,"EPHEMERIS_TYPE":0,"CLASSIFICATION_TYPE":"U","NORAD_CAT_ID":51628,"ELEMENT_SET_NO":999,"REV_AT_EPOCH":18830,"BSTAR":0.0014256,"MEAN_MOTION_DOT":5.1e-6,"MEAN_MOTION_DDOT":0},{"OBJECT_NAME":"ONEWEB-0428","OBJECT_ID":"2022-012H","EPOCH":"2026-01-07T15:51:14.701248","MEAN_MOTION":13.10375143,"ECCENTRICITY":0.0001745,"INCLINATION":87.8788,"RA_OF_ASC_NODE":68.2794,"ARG_OF_PERICENTER":99.1494,"MEAN_ANOMALY":260.9831,"EPHEMERIS_TYPE":0,"CLASSIFICATION_TYPE":"U","NORAD_CAT_ID":51629,"ELEMENT_SET_NO":999,"REV_AT_EPOCH":18826,"BSTAR":-0.0011773,"MEAN_MOTION_DOT":-3.98e-6,"MEAN_MOTION_DDOT":0},{"OBJECT_NAME":"ONEWEB-0431","OBJECT_ID":"2022-012J","EPOCH":"2026-01-07T16:57:58.803840","MEAN_MOTION":13.10369256,"ECCENTRICITY":0.0001087,"INCLINATION":87.8783,"RA_OF_ASC_NODE":68.2514,"ARG_OF_PERICENTER":106.4652,"MEAN_ANOMALY":253.6595,"EPHEMERIS_TYPE":0,"CLASSIFICATION_TYPE":"U","NORAD_CAT_ID":51630,"ELEMENT_SET_NO":999,"REV_AT_EPOCH":18832,"BSTAR":0.00042129,"MEAN_MOTION_DOT":1.6e-6,"MEAN_MOTION_DDOT":0},{"OBJECT_NAME":"ONEWEB-0434","OBJECT_ID":"2022-012K","EPOCH":"2026-01-07T16:24:56.367072","MEAN_MOTION":13.10374167,"ECCENTRICITY":0.0002424,"INCLINATION":87.8783,"RA_OF_ASC_NODE":68.2898,"ARG_OF_PERICENTER":103.016,"MEAN_ANOMALY":257.1238,"EPHEMERIS_TYPE":0,"CLASSIFICATION_TYPE":"U","NORAD_CAT_ID":51631,"ELEMENT_SET_NO":999,"REV_AT_EPOCH":18830,"BSTAR":0.0018091,"MEAN_MOTION_DOT":6.44e-6,"MEAN_MOTION_DDOT":0},{"OBJECT_NAME":"ONEWEB-0435","OBJECT_ID":"2022-012L","EPOCH":"2026-01-07T16:36:41.185440","MEAN_MOTION":13.10371566,"ECCENTRICITY":0.000165,"INCLINATION":87.8781,"RA_OF_ASC_NODE":68.2777,"ARG_OF_PERICENTER":91.1646,"MEAN_ANOMALY":268.9671,"EPHEMERIS_TYPE":0,"CLASSIFICATION_TYPE":"U","NORAD_CAT_ID":51632,"ELEMENT_SET_NO":999,"REV_AT_EPOCH":18829,"BSTAR":0.0014567,"MEAN_MOTION_DOT":5.21e-6,"MEAN_MOTION_DDOT":0},{"OBJECT_NAME":"ONEWEB-0436","OBJECT_ID":"2022-012M","EPOCH":"2026-01-07T14:34:24.289248","MEAN_MOTION":13.17649694,"ECCENTRICITY":0.000162,"INCLINATION":87.9094,"RA_OF_ASC_NODE":37.7567,"ARG_OF_PERICENTER":88.747,"MEAN_ANOMALY":271.3847,"EPHEMERIS_TYPE":0,"CLASSIFICATION_TYPE":"U","NORAD_CAT_ID":51633,"ELEMENT_SET_NO":999,"REV_AT_EPOCH":19253,"BSTAR":7.2479e-6,"MEAN_MOTION_DOT":1.6e-7,"MEAN_MOTION_DDOT":0},{"OBJECT_NAME":"ONEWEB-0438","OBJECT_ID":"2022-012N","EPOCH":"2026-01-07T16:12:46.763136","MEAN_MOTION":13.10375645,"ECCENTRICITY":0.0001927,"INCLINATION":87.8784,"RA_OF_ASC_NODE":68.2827,"ARG_OF_PERICENTER":103.4908,"MEAN_ANOMALY":256.6434,"EPHEMERIS_TYPE":0,"CLASSIFICATION_TYPE":"U","NORAD_CAT_ID":51634,"ELEMENT_SET_NO":999,"REV_AT_EPOCH":18832,"BSTAR":0.00084432,"MEAN_MOTION_DOT":3.07e-6,"MEAN_MOTION_DDOT":0},{"OBJECT_NAME":"ONEWEB-0439","OBJECT_ID":"2022-012P","EPOCH":"2026-01-07T16:17:33.569664","MEAN_MOTION":13.10374481,"ECCENTRICITY":0.0001778,"INCLINATION":87.8784,"RA_OF_ASC_NODE":68.2705,"ARG_OF_PERICENTER":97.9756,"MEAN_ANOMALY":262.1573,"EPHEMERIS_TYPE":0,"CLASSIFICATION_TYPE":"U","NORAD_CAT_ID":51635,"ELEMENT_SET_NO":999,"REV_AT_EPOCH":18830,"BSTAR":0.0013458,"MEAN_MOTION_DOT":4.82e-6,"MEAN_MOTION_DDOT":0},{"OBJECT_NAME":"ONEWEB-0442","OBJECT_ID":"2022-012Q","EPOCH":"2026-01-07T19:51:31.310208","MEAN_MOTION":13.17648071,"ECCENTRICITY":0.0002192,"INCLINATION":87.9083,"RA_OF_ASC_NODE":37.758,"ARG_OF_PERICENTER":106.9327,"MEAN_ANOMALY":253.2045,"EPHEMERIS_TYPE":0,"CLASSIFICATION_TYPE":"U","NORAD_CAT_ID":51636,"ELEMENT_SET_NO":999,"REV_AT_EPOCH":19255,"BSTAR":0.00021788,"MEAN_MOTION_DOT":9.7e-7,"MEAN_MOTION_DDOT":0},{"OBJECT_NAME":"ONEWEB-0443","OBJECT_ID":"2022-012R","EPOCH":"2026-01-07T18:30:06.585120","MEAN_MOTION":13.17649199,"ECCENTRICITY":0.0002049,"INCLINATION":87.9082,"RA_OF_ASC_NODE":37.7732,"ARG_OF_PERICENTER":91.1633,"MEAN_ANOMALY":268.9733,"EPHEMERIS_TYPE":0,"CLASSIFICATION_TYPE":"U","NORAD_CAT_ID":51637,"ELEMENT_SET_NO":999,"REV_AT_EPOCH":19259,"BSTAR":0.00037467,"MEAN_MOTION_DOT":1.58e-6,"MEAN_MOTION_DDOT":0},{"OBJECT_NAME":"ONEWEB-0444","OBJECT_ID":"2022-012S","EPOCH":"2026-01-07T16:03:12.437280","MEAN_MOTION":13.10375887,"ECCENTRICITY":0.000178,"INCLINATION":87.8786,"RA_OF_ASC_NODE":68.2713,"ARG_OF_PERICENTER":98.7835,"MEAN_ANOMALY":261.3494,"EPHEMERIS_TYPE":0,"CLASSIFICATION_TYPE":"U","NORAD_CAT_ID":51638,"ELEMENT_SET_NO":999,"REV_AT_EPOCH":18831,"BSTAR":-0.00026351,"MEAN_MOTION_DOT":-7.9e-7,"MEAN_MOTION_DDOT":0},{"OBJECT_NAME":"ONEWEB-0445","OBJECT_ID":"2022-012T","EPOCH":"2026-01-07T16:34:16.964832","MEAN_MOTION":13.10371523,"ECCENTRICITY":0.0001742,"INCLINATION":87.8795,"RA_OF_ASC_NODE":68.2383,"ARG_OF_PERICENTER":107.7016,"MEAN_ANOMALY":252.4301,"EPHEMERIS_TYPE":0,"CLASSIFICATION_TYPE":"U","NORAD_CAT_ID":51639,"ELEMENT_SET_NO":999,"REV_AT_EPOCH":18832,"BSTAR":0.001831,"MEAN_MOTION_DOT":6.52e-6,"MEAN_MOTION_DDOT":0}]
